[Satellite]
VERSION=1.1
NAME=ORS TECH 1
NICKNAME=ORS TECH 1
TLE1=1 39387U 13064H   15055.16906729  .00358738  00000-0  21955-2 0  9998
TLE2=2 39387  40.5091  21.8958 0022046 205.6245 154.3491 15.75136970 70965
